1 51074U 22002CU  22018.63976129  .00005793  00000-0  31877-3 0  9992
2 51074  97.5269  88.2628 0013258 250.6199 109.3600 15.14370988   760
1 51074U 22002CU  22018.63976129  .00005793  00000-0  31877-3 0  9992
2 51074  97.5269  88.2628 0013258 250.6199 109.3600 15.14370988   760
1 51074U 22002CU  22019.96127189  .00006049  00000-0  33251-3 0  9996
2 51074  97.5263  89.5698 0013346 245.6357 114.3482 15.14388295   969
1 51074U 22002CU  22019.96127189  .00006049  00000-0  33251-3 0  9996
2 51074  97.5263  89.5698 0013346 245.6357 114.3482 15.14388295   969
1 51074U 22002CU  22020.62202307  .00004756  00000-0  26219-3 0  9996
2 51074  97.5260  90.2231 0013410 243.2112 116.7748 15.14393117  1065
1 51074U 22002CU  22020.95239701  .00004734  00000-0  26095-3 0  9998
2 51074  97.5259  90.5499 0013415 241.9894 117.9981 15.14396913  1114
1 51074U 22002CU  22021.74529315  .00004760  00000-0  26233-3 0  9992
2 51074  97.5257  91.3339 0013473 239.0943 120.8965 15.14404512  1234
1 51074U 22002CU  22021.87744207  .00004981  00000-0  27430-3 0  9990
2 51074  97.5257  91.4645 0013460 238.5606 121.4310 15.14406297  1256
1 51074U 22002CU  22022.27388778  .00005555  00000-0  30542-3 0  9998
2 51074  97.5257  91.8566 0013481 237.0904 122.9031 15.14411772  1317
1 51074U 22002CU  22022.93462891  .00005185  00000-0  28529-3 0  9991
2 51074  97.5256  92.5100 0013507 234.5730 125.4241 15.14417337  1411
1 51074U 22002CU  22023.19892426  .00005509  00000-0  30288-3 0  9996
2 51074  97.5256  92.7714 0013518 233.5887 126.4099 15.14421091  1456
1 51074U 22002CU  22023.52929307  .00005225  00000-0  28743-3 0  9990
2 51074  97.5256  93.0981 0013532 232.3151 127.6854 15.14423826  1509
1 51074U 22002CU  22023.85966091  .00005139  00000-0  28273-3 0  9999
2 51074  97.5256  93.4248 0013541 231.0679 128.9347 15.14427395  1551
1 51074U 22002CU  22024.38824821  .00004444  00000-0  24495-3 0  9992
2 51074  97.5257  93.9476 0013569 229.0416 130.9642 15.14431215  1632
1 51074U 22002CU  22024.52039462  .00004285  00000-0  23634-3 0  9994
2 51074  97.5257  94.0783 0013576 228.5556 131.4510 15.14432411  1653
1 51074U 22002CU  22024.91683349  .00003886  00000-0  21467-3 0  9994
2 51074  97.5257  94.4704 0013597 227.0607 132.9485 15.14435543  1717
1 51074U 22002CU  22025.44541745  .00004202  00000-0  23177-3 0  9999
2 51074  97.5257  94.9932 0013630 225.0636 134.9491 15.14441244  1795
1 51074U 22002CU  22025.51148982  .00004646  00000-0  25586-3 0  9991
2 51074  97.5257  95.0585 0013628 224.8180 135.1952 15.14443357  1803
1 51074U 22002CU  22025.90792630  .00004789  00000-0  26358-3 0  9995
2 51074  97.5257  95.4506 0013650 223.3207 136.6952 15.14447504  1869
1 51074U 22002CU  22026.50257868  .00004877  00000-0  26827-3 0  9990
2 51074  97.5256  96.0388 0013685 221.0300 138.9903 15.14453666  1957
1 51074U 22002CU  22026.76686801  .00004578  00000-0  25207-3 0  9990
2 51074  97.5257  96.3002 0013712 220.1415 139.8805 15.14455816  1996
1 51074U 22002CU  22026.89901254  .00004313  00000-0  23770-3 0  9996
2 51074  97.5257  96.4310 0013729 219.6710 140.3518 15.14456560  2017
1 51074U 22002CU  22027.49366114  .00004134  00000-0  22795-3 0  9990
2 51074  97.5257  97.0191 0013779 217.5948 142.4322 15.14462282  2100
1 51074U 22002CU  22027.82402066  .00004088  00000-0  22541-3 0  9991
2 51074  97.5257  97.3459 0013809 216.4468 143.5825 15.14465418  2158
1 51074U 22002CU  22027.89009236  .00004586  00000-0  25242-3 0  9994
2 51074  97.5257  97.4112 0013814 216.2081 143.8217 15.14467096  2163
1 51074U 22002CU  22028.55080887  .00004406  00000-0  24258-3 0  9996
2 51074  97.5256  98.0647 0013879 213.9067 146.1279 15.14473057  2260
1 51074U 22002CU  22028.81509447  .00004629  00000-0  25466-3 0  9992
2 51074  97.5256  98.3261 0013887 212.9209 147.1159 15.14476258  2300
1 51074U 22002CU  22029.14545102  .00004903  00000-0  26949-3 0  9999
2 51074  97.5256  98.6529 0013921 211.7968 148.2424 15.14480027  2359
1 51074U 22002CU  22029.54187690  .00006823  00000-0  37341-3 0  9998
2 51074  97.5255  99.0450 0013952 210.4185 149.6239 15.14488485  2419
1 51074U 22002CU  22029.87223133  .00006618  00000-0  36225-3 0  9999
2 51074  97.5256  99.3717 0013975 209.2245 150.8206 15.14491922  2460
1 51074U 22002CU  22030.20258437  .00006509  00000-0  35633-3 0  9994
2 51074  97.5255  99.6984 0013989 208.0197 152.0283 15.14496305  2511
1 51074U 22002CU  22030.59900664  .00007239  00000-0  39574-3 0  9991
2 51074  97.5256 100.0905 0014015 206.6306 153.4208 15.14503224  2576
1 51074U 22002CU  22030.92935773  .00006967  00000-0  38100-3 0  9998
2 51074  97.5254 100.4171 0014038 205.2903 154.7643 15.14507057  2627
1 51074U 22002CU  22031.45791660  .00009830  00000-0  53569-3 0  9990
2 51074  97.5253 100.9399 0014059 203.3288 156.7307 15.14519441  2709
1 51074U 22002CU  22031.45791660  .00009830  00000-0  53569-3 0  9990
2 51074  97.5253 100.9399 0014059 203.3288 156.7307 15.14519441  2709
1 51074U 22002CU  22031.85433381  .00011004  00000-0  59900-3 0  9998
2 51074  97.5252 101.3319 0014084 201.8610 158.2022 15.14527263  2763
1 51074U 22002CU  22032.44895666  .00009548  00000-0  52021-3 0  9999
2 51074  97.5249 101.9200 0014131 199.6447 160.4242 15.14534435  2857
1 51074U 22002CU  22032.84537087  .00006075  00000-0  33243-3 0  9990
2 51074  97.5247 102.3120 0014164 198.1840 161.8887 15.14534393  2918
1 51074U 22002CU  22033.17571472  .00007411  00000-0  40463-3 0  9990
2 51074  97.5244 102.6386 0014187 197.0123 163.0635 15.14540981  2969
1 51074U 22002CU  22033.43998895  .00007586  00000-0  41404-3 0  9990
2 51074  97.5243 102.8999 0014215 196.0717 164.0066 15.14544825  3006
1 51074U 22002CU  22033.83639952  .00006604  00000-0  36089-3 0  9993
2 51074  97.5241 103.2919 0014252 194.8545 165.2270 15.14548388  3061
1 51074U 22002CU  22034.49708083  .00005677  00000-0  31072-3 0  9994
2 51074  97.5237 103.9452 0014320 192.5694 167.5183 15.14555130  3163
1 51074U 22002CU  22034.49708083  .00005677  00000-0  31072-3 0  9994
2 51074  97.5237 103.9452 0014320 192.5694 167.5183 15.14555130  3163
1 51074U 22002CU  22035.42202508  .00008937  00000-0  48657-3 0  9998
2 51074  97.5233 104.8599 0014400 189.4946 170.6016 15.14575297  3307
1 51074U 22002CU  22035.48809203  .00009131  00000-0  49701-3 0  9997
2 51074  97.5232 104.9251 0014410 189.2899 170.8069 15.14576914  3316
1 51074U 22002CU  22035.88449272  .00011446  00000-0  62172-3 0  9996
2 51074  97.5230 105.3171 0014432 188.0018 172.0986 15.14588245  3372
1 51074U 22002CU  22036.41302309  .00011587  00000-0  62907-3 0  9997
2 51074  97.5229 105.8397 0014480 186.2345 173.8709 15.14600115  3453
1 51074U 22002CU  22036.74335301  .00010420  00000-0  56610-3 0  9990
2 51074  97.5229 106.1664 0014497 185.1033 175.0053 15.14605402  3500
1 51074U 22002CU  22037.40400765  .00009676  00000-0  52578-3 0  9991
2 51074  97.5228 106.8197 0014534 182.9074 177.2075 15.14618757  3605
1 51074U 22002CU  22037.73433344  .00009200  00000-0  50005-3 0  9992
2 51074  97.5229 107.1465 0014560 181.6719 178.4466 15.14624370  3659
1 51074U 22002CU  22038.19678728  .00008186  00000-0  44532-3 0  9990
2 51074  97.5229 107.6038 0014613 179.9843 180.1392 15.14631217  3721
1 51074U 22002CU  22038.46104588  .00007823  00000-0  42571-3 0  9996
2 51074  97.5230 107.8653 0014610 179.0379 181.0884 15.14634798  3767
1 51074U 22002CU  22038.72530385  .00007068  00000-0  38493-3 0  9992
2 51074  97.5231 108.1266 0014652 178.0177 182.1115 15.14637870  3801
1 51074U 22002CU  22039.45200918  .00007337  00000-0  39933-3 0  9998
2 51074  97.5232 108.8454 0014727 175.3574 184.7797 15.14649315  3915
1 51074U 22002CU  22039.45200918  .00007337  00000-0  39933-3 0  9998
2 51074  97.5232 108.8454 0014727 175.3574 184.7797 15.14649315  3915
1 51074U 22002CU  22039.71626465  .00006916  00000-0  37661-3 0  9994
2 51074  97.5232 109.1068 0014757 174.4148 185.7251 15.14652483  3950
1 51074U 22002CU  22040.44296318  .00007406  00000-0  40283-3 0  9995
2 51074  97.5232 109.8256 0014814 171.9190 188.2284 15.14663618  4068
1 51074U 22002CU  22040.70721620  .00007203  00000-0  39189-3 0  9991
2 51074  97.5232 110.0870 0014847 171.0032 189.1469 15.14667031  4109
1 51074U 22002CU  22041.43390812  .00007718  00000-0  41948-3 0  9994
2 51074  97.5231 110.8058 0014900 168.6692 191.4878 15.14677801  4216
1 51074U 22002CU  22041.76422101  .00008100  00000-0  43995-3 0  9997
2 51074  97.5230 111.1324 0014915 167.7375 192.4223 15.14683061  4264
1 51074U 22002CU  22041.76422101  .00008100  00000-0  43995-3 0  9997
2 51074  97.5230 111.1324 0014915 167.7375 192.4223 15.14683061  4264
1 51074U 22002CU  22042.42484096  .00011518  00000-0  62349-3 0  9993
2 51074  97.5229 111.7859 0014960 165.5803 194.5859 15.14700617  4369
1 51074U 22002CU  22042.75514908  .00010348  00000-0  56052-3 0  9999
2 51074  97.5229 112.1125 0014984 164.5498 195.6194 15.14705475  4412
1 51074U 22002CU  22043.15151659  .00010950  00000-0  59274-3 0  9992
2 51074  97.5228 112.5044 0015004 163.3531 196.8196 15.14714630  4478
1 51074U 22002CU  22043.15151659  .00010950  00000-0  59274-3 0  9992
2 51074  97.5228 112.5044 0015004 163.3531 196.8196 15.14714630  4478
1 51074U 22002CU  22043.74606316  .00009513  00000-0  51535-3 0  9997
2 51074  97.5228 113.0924 0015041 161.4887 198.6895 15.14726226  4565
1 51074U 22002CU  22044.47272472  .00010318  00000-0  55831-3 0  9998
2 51074  97.5227 113.8113 0015044 159.0101 201.1752 15.14742402  4675
1 51074U 22002CU  22044.47272472  .00010318  00000-0  55831-3 0  9998
2 51074  97.5227 113.8113 0015044 159.0101 201.1752 15.14742402  4675
1 51074U 22002CU  22045.13332063  .00009226  00000-0  49952-3 0  9998
2 51074  97.5227 114.4645 0015070 156.8052 203.3863 15.14754510  4772
1 51074U 22002CU  22045.72785262  .00007241  00000-0  39285-3 0  9999
2 51074  97.5226 115.0525 0015135 154.7230 205.4746 15.14762207  4867
1 51074U 22002CU  22045.72785262  .00007241  00000-0  39285-3 0  9999
2 51074  97.5226 115.0525 0015135 154.7230 205.4746 15.14762207  4867
